CCSDS_OEM_VERS = 1.0
CREATION_DATE  = 2017-05-11T11:01:30
ORIGINATOR     = GMAT USER

META_START
OBJECT_NAME          = MOPSSat_alt_35785_km_RAAN_0_076
OBJECT_ID            = SatId
CENTER_NAME          = Earth
REF_FRAME            = EME2000
TIME_SYSTEM          = UTC
START_TIME           = 2017-01-01T00:00:00.000
USEABLE_START_TIME   = 2017-01-01T00:00:00.000
USEABLE_STOP_TIME    = 2017-01-02T00:00:00.000
STOP_TIME            = 2017-01-02T00:00:00.000
INTERPOLATION        = Lagrange
INTERPOLATION_DEGREE = 7 
META_STOP


                                                                                   

2017-01-01T03:49:10.000   2.261315648098613e+04   3.553724064228137e+04   1.240912029683190e+03  -2.594639134041621e+00   1.651891639283618e+00   5.768367605867142e-02
2017-01-01T03:49:20.000   2.258720406843168e+04   3.555375009257579e+04   1.241488535970379e+03  -2.595843049966790e+00   1.649998212429178e+00   5.761757414814746e-02
2017-01-01T03:49:30.000   2.256123962387212e+04   3.557024060407679e+04   1.242064381080559e+03  -2.597045581063619e+00   1.648103909995321e+00   5.755144168354163e-02
2017-01-01T03:49:40.000   2.253526316142700e+04   3.558671216786349e+04   1.242639564702426e+03  -2.598246726682927e+00   1.646208733015238e+00   5.748527870091234e-02
2017-01-01T03:49:50.000   2.250927469468831e+04   3.560316477536398e+04   1.243214086536859e+03  -2.599446486200983e+00   1.644312682483625e+00   5.741908523497424e-02
2017-01-01T03:50:00.000   2.248327423731634e+04   3.561959841797710e+04   1.243787946283716e+03  -2.600644858991935e+00   1.642415759400159e+00   5.735286132061566e-02
2017-01-01T03:50:10.000   2.245726180290484e+04   3.563601308715840e+04   1.244361143644838e+03  -2.601841844434072e+00   1.640517964759657e+00   5.728660699255553e-02
2017-01-01T03:50:20.000   2.243123740531627e+04   3.565240877420509e+04   1.244933678316531e+03  -2.603037441894138e+00   1.638619299576541e+00   5.722032228619693e-02
2017-01-01T03:50:30.000   2.240520105843338e+04   3.566878547041645e+04   1.245505549995178e+03  -2.604231650739037e+00   1.636719764866708e+00   5.715400723699457e-02
2017-01-01T03:50:40.000   2.237915277615854e+04   3.568514316709278e+04   1.246076758377196e+03  -2.605424470335757e+00   1.634819361647482e+00   5.708766188045292e-02
2017-01-01T03:50:50.000   2.235309257266575e+04   3.570148185538071e+04   1.246647303153634e+03  -2.606615900040082e+00   1.632918090956004e+00   5.702128625276823e-02
2017-01-01T03:51:00.000   2.232702046206183e+04   3.571780152648263e+04   1.247217184017491e+03  -2.607805939211872e+00   1.631015953824507e+00   5.695488038996551e-02
2017-01-01T03:51:10.000   2.230093645851961e+04   3.573410217157388e+04   1.247786400660817e+03  -2.608994587209015e+00   1.629112951290042e+00   5.688844432823783e-02
2017-01-01T03:51:20.000   2.227484057568947e+04   3.575038378217061e+04   1.248354952787569e+03  -2.610181843414269e+00   1.627209084351534e+00   5.682197810244738e-02
2017-01-01T03:51:30.000   2.224873282728772e+04   3.576664634976184e+04   1.248922840100749e+03  -2.611367707208406e+00   1.625304354012720e+00   5.675548174762413e-02
2017-01-01T03:51:40.000   2.222261322696378e+04   3.578288986589287e+04   1.249490062305330e+03  -2.612552177976319e+00   1.623398761272451e+00   5.668895529862759e-02
2017-01-01T03:51:50.000   2.219648178863678e+04   3.579911432195236e+04   1.250056619100812e+03  -2.613735255091477e+00   1.621492307149254e+00   5.662239879100420e-02
2017-01-01T03:52:00.000   2.217033852624618e+04   3.581531970933118e+04   1.250622510186772e+03  -2.614916937927525e+00   1.619584992663133e+00   5.655581226035184e-02
2017-01-01T03:52:10.000   2.214418345375097e+04   3.583150601942143e+04   1.251187735262832e+03  -2.616097225858196e+00   1.617676818835519e+00   5.648919574231821e-02
2017-01-01T03:52:20.000   2.211801658538287e+04   3.584767324346324e+04   1.251752294023305e+03  -2.617276118246153e+00   1.615767786707729e+00   5.642254927324541e-02
2017-01-01T03:52:30.000   2.209183793530596e+04   3.586382137275207e+04   1.252316186164436e+03  -2.618453614458103e+00   1.613857897316149e+00   5.635587288930314e-02
2017-01-01T03:52:40.000   2.206564751775057e+04   3.587995039855684e+04   1.252879411381543e+03  -2.619629713858808e+00   1.611947151701993e+00   5.628916662682983e-02
2017-01-01T03:52:50.000   2.203944534642235e+04   3.589606031248373e+04   1.253441969381723e+03  -2.620804415837654e+00   1.610035550868192e+00   5.622243052082723e-02
2017-01-01T03:53:00.000   2.201323143509302e+04   3.591215110611231e+04   1.254003859871139e+03  -2.621977719782070e+00   1.608123095822495e+00   5.615566460646541e-02
2017-01-01T03:53:10.000   2.198700579746706e+04   3.592822277107793e+04   1.254565082557908e+03  -2.623149625083573e+00   1.606209787567742e+00   5.608886891874297e-02
2017-01-01T03:53:20.000   2.196076844751971e+04   3.594427529886111e+04   1.255125637144735e+03  -2.624320131122389e+00   1.604295627126522e+00   5.602204349334806e-02
2017-01-01T03:53:30.000   2.193451939924646e+04   3.596030868094473e+04   1.255685523334407e+03  -2.625489237278925e+00   1.602380615522902e+00   5.595518836602024e-02
2017-01-01T03:53:40.000   2.190825866666239e+04   3.597632290881295e+04   1.256244740829761e+03  -2.626656942933691e+00   1.600464753782370e+00   5.588830357254889e-02
2017-01-01T03:53:50.000   2.188198626405625e+04   3.599231797379986e+04   1.256803289328386e+03  -2.627823247456252e+00   1.598548042950380e+00   5.582138914942022e-02
2017-01-01T03:54:00.000   2.185570220564882e+04   3.600829386729435e+04   1.257361168529791e+03  -2.628988150220187e+00   1.596630484067421e+00   5.575444513294718e-02
2017-01-01T03:54:10.000   2.182940650572985e+04   3.602425058065768e+04   1.257918378132515e+03  -2.630151650597053e+00   1.594712078179014e+00   5.568747155961836e-02
2017-01-01T03:54:20.000   2.180309917805477e+04   3.604018810558944e+04   1.258474917846916e+03  -2.631313747983098e+00   1.592792826291690e+00   5.562046846456122e-02
2017-01-01T03:54:30.000   2.177678023644938e+04   3.605610643376047e+04   1.259030787382343e+03  -2.632474441772469e+00   1.590872729417116e+00   5.555343588308240e-02
2017-01-01T03:54:40.000   2.175044969465386e+04   3.607200555690776e+04   1.259585986450458e+03  -2.633633731364146e+00   1.588951788560707e+00   5.548637385027029e-02
2017-01-01T03:54:50.000   2.172410756674187e+04   3.608788546657847e+04   1.260140514756291e+03  -2.634791616143273e+00   1.587030004752204e+00   5.541928240206260e-02
2017-01-01T03:55:00.000   2.169775386677494e+04   3.610374615434148e+04   1.260694372005634e+03  -2.635948095496589e+00   1.585107379020459e+00   5.535216157436589e-02
2017-01-01T03:55:10.000   2.167138860887948e+04   3.611958761174021e+04   1.261247557903387e+03  -2.637103168808973e+00   1.583183912399054e+00   5.528501140325193e-02
2017-01-01T03:55:20.000   2.164501180722665e+04   3.613540983030661e+04   1.261800072154050e+03  -2.638256835464484e+00   1.581259605924833e+00   5.521783192490624e-02
2017-01-01T03:55:30.000   2.161862347600533e+04   3.615121280157581e+04   1.262351914462235e+03  -2.639409094847414e+00   1.579334460635931e+00   5.515062317555949e-02
2017-01-01T03:55:40.000   2.159222362941273e+04   3.616699651709201e+04   1.262903084532868e+03  -2.640559946342725e+00   1.577408477571082e+00   5.508338519146329e-02
2017-01-01T03:55:50.000   2.156581228156032e+04   3.618276096846555e+04   1.263453582073186e+03  -2.641709389340203e+00   1.575481657762767e+00   5.501611800865081e-02
2017-01-01T03:56:00.000   2.153938944653632e+04   3.619850614733445e+04   1.264003406791393e+03  -2.642857423231666e+00   1.573554002241766e+00   5.494882166309584e-02
2017-01-01T03:56:10.000   2.151295513840573e+04   3.621423204536462e+04   1.264552558396666e+03  -2.644004047410969e+00   1.571625512037160e+00   5.488149619071298e-02
2017-01-01T03:56:20.000   2.148650937114697e+04   3.622993865428666e+04   1.265101036600439e+03  -2.645149261276685e+00   1.569696188171712e+00   5.481414162719610e-02
2017-01-01T03:56:30.000   2.146005215874663e+04   3.624562596584002e+04   1.265648841114459e+03  -2.646293064228046e+00   1.567766031668776e+00   5.474675800825976e-02
2017-01-01T03:56:40.000   2.143358351520915e+04   3.626129397176773e+04   1.266195971650593e+03  -2.647435455664547e+00   1.565835043553004e+00   5.467934536966389e-02
2017-01-01T03:56:50.000   2.140710345458239e+04   3.627694266379937e+04   1.266742427920243e+03  -2.648576434984713e+00   1.563903224852219e+00   5.461190374727892e-02
2017-01-01T03:57:00.000   2.138061199097979e+04   3.629257203364019e+04   1.267288209633956e+03  -2.649716001585294e+00   1.561970576599016e+00   5.454443317714202e-02
2017-01-01T03:57:10.000   2.135410913850193e+04   3.630818207301636e+04   1.267833316503014e+03  -2.650854154864577e+00   1.560037099825053e+00   5.447693369525763e-02
2017-01-01T03:57:20.000   2.132759491158699e+04   3.632377277347130e+04   1.268377748232313e+03  -2.651990894207530e+00   1.558102795586613e+00   5.440940533848979e-02
2017-01-01T03:57:30.000   2.130106932458634e+04   3.633934412661295e+04   1.268921504529007e+03  -2.653126219003830e+00   1.556167664933644e+00   5.434184814348141e-02
2017-01-01T03:57:40.000   2.127453239192233e+04   3.635489612402166e+04   1.269464585099280e+03  -2.654260128641152e+00   1.554231708921265e+00   5.427426214705589e-02
2017-01-01T03:57:50.000   2.124798412747788e+04   3.637042875760810e+04   1.270006989660855e+03  -2.655392622531259e+00   1.552294928565241e+00   5.420664738466274e-02
2017-01-01T03:58:00.000   2.122142454520513e+04   3.638594201925606e+04   1.270548717930515e+03  -2.656523700083959e+00   1.550357324886382e+00   5.413900389192765e-02
2017-01-01T03:58:10.000   2.119485365898777e+04   3.640143590090374e+04   1.271089769626943e+03  -2.657653360713036e+00   1.548418898900503e+00   5.407133170430180e-02
